{
  "type": "FeatureCollection",
  "features": [
    {
      "type": "Feature",
      "properties": {
        "norad_id": 34022,
        "name": "COSMOS 2251 DEB",
        "group": "cosmos-2251-debris",
        "lat": -52.97665716967606,
        "lon": -102.19109786740272,
        "alt_km": 756.630165759806,
        "timestamp": "2025-12-07T16:44:04.306267+00:00",
        "meta_object_name": "COSMOS 2251 DEB",
        "meta_object_id": "1993-036HH",
        "meta_epoch": "2025-12-06T22:57:13.532832",
        "meta_mean_motion": 14.3894889,
        "meta_eccentricity": 0.00225028,
        "meta_inclination": 74.054,
        "meta_ra_of_asc_node": 281.4511,
        "meta_arg_of_pericenter": 347.4472,
        "meta_mean_anomaly": 80.3607,
        "meta_ephemeris_type": 0,
        "meta_classification_type": "U",
        "meta_norad_cat_id": 34022,
        "meta_element_set_no": 999,
        "meta_rev_at_epoch": 88112,
        "meta_bstar": 0.0004565119,
        "meta_mean_motion_dot": 1.386e-05,
        "meta_mean_motion_ddot": 0,
        "tle_line1": "1 34022U 93036HH  25340.95640663  .00001386  00000+0  45651-3 0  9996",
        "tle_line2": "2 34022  74.0540 281.4511 0022502 347.4472  80.3607 14.38948890881125"
      },
      "geometry": {
        "type": "Point",
        "coordinates": [
          -102.19109786740272,
          -52.97665716967606
        ]
      }
    },
    {
      "type": "Feature",
      "properties": {
        "norad_id": 34023,
        "name": "COSMOS 2251 DEB",
        "group": "cosmos-2251-debris",
        "lat": -14.033783526924136,
        "lon": 85.18063238391252,
        "alt_km": 773.3785015153553,
        "timestamp": "2025-12-07T16:44:04.306277+00:00",
        "meta_object_name": "COSMOS 2251 DEB",
        "meta_object_id": "1993-036HJ",
        "meta_epoch": "2025-12-06T20:05:40.140960",
        "meta_mean_motion": 14.40541176,
        "meta_eccentricity": 0.00182286,
        "meta_inclination": 74.026,
        "meta_ra_of_asc_node": 262.6657,
        "meta_arg_of_pericenter": 359.2078,
        "meta_mean_anomaly": 57.218,
        "meta_ephemeris_type": 0,
        "meta_classification_type": "U",
        "meta_norad_cat_id": 34023,
        "meta_element_set_no": 999,
        "meta_rev_at_epoch": 88129,
        "meta_bstar": 0.00070792602,
        "meta_mean_motion_dot": 2.233e-05,
        "meta_mean_motion_ddot": 0,
        "tle_line1": "1 34023U 93036HJ  25340.83727015  .00002233  00000+0  70793-3 0  9998",
        "tle_line2": "2 34023  74.0260 262.6657 0018228 359.2078  57.2180 14.40541176881296"
      },
      "geometry": {
        "type": "Point",
        "coordinates": [
          85.18063238391252,
          -14.033783526924136
        ]
      }
    },
    {
      "type": "Feature",
      "properties": {
        "norad_id": 34024,
        "name": "COSMOS 2251 DEB",
        "group": "cosmos-2251-debris",
        "lat": -58.641128980674445,
        "lon": -62.758186226718365,
        "alt_km": 777.8932618642466,
        "timestamp": "2025-12-07T16:44:04.306287+00:00",
        "meta_object_name": "COSMOS 2251 DEB",
        "meta_object_id": "1993-036HK",
        "meta_epoch": "2025-12-06T16:46:08.624352",
        "meta_mean_motion": 14.35385628,
        "meta_eccentricity": 0.00207608,
        "meta_inclination": 74.0462,
        "meta_ra_of_asc_node": 327.0663,
        "meta_arg_of_pericenter": 19.3436,
        "meta_mean_anomaly": 160.422,
        "meta_ephemeris_type": 0,
        "meta_classification_type": "U",
        "meta_norad_cat_id": 34024,
        "meta_element_set_no": 999,
        "meta_rev_at_epoch": 87937,
        "meta_bstar": 0.00035691235,
        "meta_mean_motion_dot": 1.001e-05,
        "meta_mean_motion_ddot": 0,
        "tle_line1": "1 34024U 93036HK  25340.69871093  .00001001  00000+0  35691-3 0  9999",
        "tle_line2": "2 34024  74.0462 327.0663 0020760  19.3436 160.4220 14.35385628879370"
      },
      "geometry": {
        "type": "Point",
        "coordinates": [
          -62.758186226718365,
          -58.641128980674445
        ]
      }
    },
    {
      "type": "Feature",
      "properties": {
        "norad_id": 34026,
        "name": "COSMOS 2251 DEB",
        "group": "cosmos-2251-debris",
        "lat": 15.800403964686941,
        "lon": -9.599510007674036,
        "alt_km": 1259.8433538862191,
        "timestamp": "2025-12-07T16:44:04.306297+00:00",
        "meta_object_name": "COSMOS 2251 DEB",
        "meta_object_id": "1993-036HM",
        "meta_epoch": "2025-12-06T18:41:08.371104",
        "meta_mean_motion": 13.65293454,
        "meta_eccentricity": 0.0351018,
        "meta_inclination": 73.7677,
        "meta_ra_of_asc_node": 347.1988,
        "meta_arg_of_pericenter": 218.0939,
        "meta_mean_anomaly": 323.2686,
        "meta_ephemeris_type": 0,
        "meta_classification_type": "U",
        "meta_norad_cat_id": 34026,
        "meta_element_set_no": 999,
        "meta_rev_at_epoch": 83450,
        "meta_bstar": 0.0016316323,
        "meta_mean_motion_dot": 1.997e-05,
        "meta_mean_motion_ddot": 0,
        "tle_line1": "1 34026U 93036HM  25340.77856911  .00001997  00000+0  16316-2 0  9998",
        "tle_line2": "2 34026  73.7677 347.1988 0351018 218.0939 323.2686 13.65293454834506"
      },
      "geometry": {
        "type": "Point",
        "coordinates": [
          -9.599510007674036,
          15.800403964686941
        ]
      }
    },
    {
      "type": "Feature",
      "properties": {
        "norad_id": 34028,
        "name": "COSMOS 2251 DEB",
        "group": "cosmos-2251-debris",
        "lat": 55.896541030359344,
        "lon": 149.70696411878873,
        "alt_km": 775.2149538528856,
        "timestamp": "2025-12-07T16:44:04.306309+00:00",
        "meta_object_name": "COSMOS 2251 DEB",
        "meta_object_id": "1993-036HP",
        "meta_epoch": "2025-12-06T19:11:07.212192",
        "meta_mean_motion": 13.20617967,
        "meta_eccentricity": 0.05439159,
        "meta_inclination": 73.8836,
        "meta_ra_of_asc_node": 356.358,
        "meta_arg_of_pericenter": 135.2218,
        "meta_mean_anomaly": 39.357,
        "meta_ephemeris_type": 0,
        "meta_classification_type": "U",
        "meta_norad_cat_id": 34028,
        "meta_element_set_no": 999,
        "meta_rev_at_epoch": 80929,
        "meta_bstar": 0.00024733911,
        "meta_mean_motion_dot": 2.01e-06,
        "meta_mean_motion_ddot": 0,
        "tle_line1": "1 34028U 93036HP  25340.79938903  .00000201  00000+0  24734-3 0  9995",
        "tle_line2": "2 34028  73.8836 356.3580 0543915 135.2218  39.3570 13.20617967809290"
      },
      "geometry": {
        "type": "Point",
        "coordinates": [
          149.70696411878873,
          55.896541030359344
        ]
      }
    },
    {
      "type": "Feature",
      "properties": {
        "norad_id": 34031,
        "name": "COSMOS 2251 DEB",
        "group": "cosmos-2251-debris",
        "lat": 42.746464378109906,
        "lon": 160.7048573983721,
        "alt_km": 702.9072329969067,
        "timestamp": "2025-12-07T16:44:04.306319+00:00",
        "meta_object_name": "COSMOS 2251 DEB",
        "meta_object_id": "1993-036HS",
        "meta_epoch": "2025-12-06T21:21:38.412288",
        "meta_mean_motion": 14.59578909,
        "meta_eccentricity": 0.00229917,
        "meta_inclination": 74.0122,
        "meta_ra_of_asc_node": 146.8792,
        "meta_arg_of_pericenter": 267.4952,
        "meta_mean_anomaly": 217.3913,
        "meta_ephemeris_type": 0,
        "meta_classification_type": "U",
        "meta_norad_cat_id": 34031,
        "meta_element_set_no": 999,
        "meta_rev_at_epoch": 88480,
        "meta_bstar": 0.0022461598,
        "meta_mean_motion_dot": 0.00010707,
        "meta_mean_motion_ddot": 0,
        "tle_line1": "1 34031U 93036HS  25340.89002792  .00010707  00000+0  22462-2 0  9995",
        "tle_line2": "2 34031  74.0122 146.8792 0022991 267.4952 217.3913 14.59578909884805"
      },
      "geometry": {
        "type": "Point",
        "coordinates": [
          160.7048573983721,
          42.746464378109906
        ]
      }
    },
    {
      "type": "Feature",
      "properties": {
        "norad_id": 34035,
        "name": "COSMOS 2251 DEB",
        "group": "cosmos-2251-debris",
        "lat": -11.346883671998986,
        "lon": -4.664186417311279,
        "alt_km": 692.906307401181,
        "timestamp": "2025-12-07T16:44:04.306329+00:00",
        "meta_object_name": "COSMOS 2251 DEB",
        "meta_object_id": "1993-036HW",
        "meta_epoch": "2025-12-06T19:31:18.955776",
        "meta_mean_motion": 14.51829858,
        "meta_eccentricity": 0.00443639,
        "meta_inclination": 74.0656,
        "meta_ra_of_asc_node": 0.2834,
        "meta_arg_of_pericenter": 3.1416,
        "meta_mean_anomaly": 47.5785,
        "meta_ephemeris_type": 0,
        "meta_classification_type": "U",
        "meta_norad_cat_id": 34035,
        "meta_element_set_no": 999,
        "meta_rev_at_epoch": 87880,
        "meta_bstar": 0.0025553653,
        "meta_mean_motion_dot": 0.00010406,
        "meta_mean_motion_ddot": 0,
        "tle_line1": "1 34035U 93036HW  25340.81341384  .00010406  00000+0  25554-2 0  9995",
        "tle_line2": "2 34035  74.0656   0.2834 0044363   3.1416  47.5785 14.51829858878805"
      },
      "geometry": {
        "type": "Point",
        "coordinates": [
          -4.664186417311279,
          -11.346883671998986
        ]
      }
    }
  ]
}